{"name":"Los Angeles","description":"Headquarters","address":"5375 W. San Fernando Rd","city":"Los Angeles","state":"CA","zip":"90039","phone":"(818) 841-8282","fax":"(818) 954-9641","seq_no":1,"_id":1}{"name":"Atlanta","description":"null","address":"10 Southwoods Pkwy - Suite 100","city":"Atlanta","state":"GA","zip":"30354","phone":"(404) 766-5855","fax":"(404) 675-9225","seq_no":2,"_id":2}{"name":"Chicago","description":"null","address":"2558 W. 16th St.","city":"Chicago","state":"IL","zip":"60608","phone":"(312) 285-4710","fax":"(312) 285-4710","seq_no":4,"_id":3}{"name":"New Orleans","description":"null","address":"300 Jefferson Hwy - #1013","city":"Jefferson","state":"LA","zip":"70121","phone":"(504) 267-9075","fax":"(504) 267-9076","seq_no":7,"_id":4}{"name":"Charlotte","description":"null","address":"2205-G Distribution Center Dr.","city":"Charlotte","state":"NC","zip":"28269","phone":"(704) 494-8622","fax":"(704) 494-8677","seq_no":5,"_id":6}{"name":"Austin","description":"null","address":"7303 Burleson Rd - #200","city":"Austin","state":"TX","zip":"78744","phone":"(512) 386-5643","fax":"(512) 386-8942","seq_no":3,"_id":8}{"name":"New York","description":"null","address":"5-43 54th Avenue","city":"Long Island City","state":"NY","zip":"11101","phone":"(718) 784-3439","fax":"(718) 361-5289","seq_no":8,"_id":9}{"name":"Honolulu","description":"null","address":"99-1245 Halawa Valley Street","city":"Aiea","state":"HI","zip":"96701","phone":"(808) 484-5706","fax":"(808) 484-5707","seq_no":9,"_id":11}{"name":"Reykjavik","description":"null","address":"Flugvallarvegur 5, 101 Reykjavik","city":"Reykjavik","state":"Iceland","zip":"x","phone":"+354-515-4665","fax":"+354-515-4601","seq_no":10,"_id":12}{"name":"United Kingdom","description":"null","address":"Metropolitan Park Unit E Field Way","city":"Greenford","state":"Greater London","zip":"UB6 7UP","phone":"not yet available","fax":"not yet available","seq_no":11,"_id":13}