{"branch":9104,"address":"29125 Smith Road","city":"Romulus","state":"MI","zip":"48174","phone":"(734) 595-7075","fax":"(734) 595-9733","seq_no":1}{"branch":9184,"address":"206 Route 109 East","city":"Farmingdale","state":"NY","zip":"11735","phone":"(631) 694-4422","fax":"(866) 433-7814","seq_no":2}{"branch":9384,"address":"2251 Sylvan Road, Suite 700","city":"East Point","state":"GA","zip":"30334","phone":"(404) 762-5636","fax":"(866) 333-1405","seq_no":3}{"branch":9429,"address":"141 W. Airline Dr.","city":"Kenner","state":"LA","zip":"70062","phone":"(504) 441-8100","fax":"(504) 441-8110","seq_no":5}{"branch":9684,"address":"3111 N. Kenwood Street","city":"Burbank","state":"CA","zip":"91505","phone":"(818) 840-8247","fax":"(818) 847-0941","seq_no":7}{"branch":9778,"address":"91-209 Kalaeloa Blvd.","city":"Kapolei","state":"HI","zip":"96707","phone":"(808) 682-8200","fax":"(808) 682-8100","seq_no":8}{"branch":9662,"address":"4555 Wynn Road","city":"Las Vegas","state":"NV","zip":"89103","phone":"(702) 876-2223","fax":"(702) 876-2819","seq_no":6}{"branch":9304,"address":"500 Sandy Creek Road Bldg 2004 Ste 105","city":"Fayetteville","state":"GA","zip":"30214","phone":"(770) 560-2853","fax":"null","seq_no":4}{"branch":9162,"address":"6951 Norwitch Drive","city":"Philadelphia","state":"PA","zip":"19153","phone":"(215) 847-9870","fax":"null","seq_no":9}